[{"OBJECT_NAME":"STARLINK-6112","OBJECT_ID":"2023-090AM","EPOCH":"2026-03-09T22:00:01.999584","MEAN_MOTION":15.11298735,"ECCENTRICITY":0.00018912,"INCLINATION":43,"RA_OF_ASC_NODE":260.607,"ARG_OF_PERICENTER":282.8323,"MEAN_ANOMALY":128.9172,"EPHEMERIS_TYPE":0,"CLASSIFICATION_TYPE":"U","NORAD_CAT_ID":57136,"ELEMENT_SET_NO":999,"REV_AT_EPOCH":572,"BSTAR":0.0059524371,"MEAN_MOTION_DOT":0.00103265,"MEAN_MOTION_DDOT":0},{"OBJECT_NAME":"H-2A R\/B","OBJECT_ID":"2014-029F","EPOCH":"2026-03-09T22:37:37.455168","MEAN_MOTION":15.13509735,"ECCENTRICITY":0.00104243,"INCLINATION":98.1953,"RA_OF_ASC_NODE":57.5904,"ARG_OF_PERICENTER":119.3216,"MEAN_ANOMALY":240.9056,"EPHEMERIS_TYPE":0,"CLASSIFICATION_TYPE":"U","NORAD_CAT_ID":39771,"ELEMENT_SET_NO":999,"REV_AT_EPOCH":64385,"BSTAR":0.00040980878,"MEAN_MOTION_DOT":7.275e-5,"MEAN_MOTION_DDOT":0}]
